[{"OBJECT_NAME":"OBJECT H","OBJECT_ID":"2024-205H","EPOCH":"2026-03-09T23:10:36.271776","MEAN_MOTION":15.29110994,"ECCENTRICITY":0.00105089,"INCLINATION":97.4168,"RA_OF_ASC_NODE":147.1265,"ARG_OF_PERICENTER":38.7838,"MEAN_ANOMALY":321.4154,"EPHEMERIS_TYPE":0,"CLASSIFICATION_TYPE":"U","NORAD_CAT_ID":61901,"ELEMENT_SET_NO":999,"REV_AT_EPOCH":7354,"BSTAR":0.00059497566,"MEAN_MOTION_DOT":0.00016783,"MEAN_MOTION_DDOT":0},{"OBJECT_NAME":"STARLINK-34657","OBJECT_ID":"2025-147W","EPOCH":"2026-03-09T21:56:14.764992","MEAN_MOTION":15.30205165,"ECCENTRICITY":0.00014083,"INCLINATION":53.157,"RA_OF_ASC_NODE":241.8794,"ARG_OF_PERICENTER":70.1383,"MEAN_ANOMALY":289.9769,"EPHEMERIS_TYPE":0,"CLASSIFICATION_TYPE":"U","NORAD_CAT_ID":64775,"ELEMENT_SET_NO":999,"REV_AT_EPOCH":3878,"BSTAR":0.0010259483,"MEAN_MOTION_DOT":0.00030155,"MEAN_MOTION_DDOT":0}]
